{
    "links": {
        "self": "http://www.neowsapp.com/rest/v1/neo/3774731?api_key=iIulBulltgU6a56xZRHN4H3l9WmuAYTsLGpBGhQ2"
    },
    "id": "3774731",
    "neo_reference_id": "3774731",
    "name": "(2017 KS4)",
    "designation": "2017 KS4",
    "nasa_jpl_url": "http://ssd.jpl.nasa.gov/sbdb.cgi?sstr=3774731",
    "absolute_magnitude_h": 24.3,
    "estimated_diameter": {
        "kilometers": {
            "estimated_diameter_min": 0.0366906138,
            "estimated_diameter_max": 0.0820427065
        },
        "meters": {
            "estimated_diameter_min": 36.6906137531,
            "estimated_diameter_max": 82.0427064882
        },
        "miles": {
            "estimated_diameter_min": 0.0227984834,
            "estimated_diameter_max": 0.0509789586
        },
        "feet": {
            "estimated_diameter_min": 120.3760332259,
            "estimated_diameter_max": 269.1689931548
        }
    },
    "is_potentially_hazardous_asteroid": false,
    "close_approach_data": [
        {
            "close_approach_date": "1919-02-25",
            "close_approach_date_full": "1919-Feb-25 19:33",
            "epoch_date_close_approach": -1604636820000,
            "relative_velocity": {
                "kilometers_per_second": "19.6184821196",
                "kilometers_per_hour": "70626.5356306417",
                "miles_per_hour": "43884.582653384"
            },
            "miss_distance": {
                "astronomical": "0.339745346",
                "lunar": "132.160939594",
                "kilometers": "50825180.10401302",
                "miles": "31581302.472178876"
            },
            "orbiting_body": "Earth"
        },
        {
            "close_approach_date": "2017-05-25",
            "close_approach_date_full": "2017-May-25 23:03",
            "epoch_date_close_approach": 1495753380000,
            "relative_velocity": {
                "kilometers_per_second": "9.2949608418",
                "kilometers_per_hour": "33461.8590305957",
                "miles_per_hour": "20791.8979070943"
            },
            "miss_distance": {
                "astronomical": "0.0519605151",
                "lunar": "20.2126403739",
                "kilometers": "7773182.383062837",
                "miles": "4830031.5612956706"
            },
            "orbiting_body": "Earth"
        },
        {
            "close_approach_date": "2157-02-24",
            "close_approach_date_full": "2157-Feb-24 00:04",
            "epoch_date_close_approach": 5905872240000,
            "relative_velocity": {
                "kilometers_per_second": "23.5952547514",
                "kilometers_per_hour": "84942.9171049928",
                "miles_per_hour": "52780.2253533774"
            },
            "miss_distance": {
                "astronomical": "0.4957234195",
                "lunar": "192.8364101855",
                "kilometers": "74159167.666316465",
                "miles": "46080370.012698617"
            },
            "orbiting_body": "Earth"
        }
    ],
    "orbital_data": {
        "orbit_id": "10",
        "orbit_determination_date": "2017-09-18 06:54:09",
        "first_observation_date": "2017-05-21",
        "last_observation_date": "2017-06-04",
        "data_arc_in_days": 14,
        "observations_used": 84,
        "orbit_uncertainty": "8",
        "minimum_orbit_intersection": ".0345752",
        "jupiter_tisserand_invariant": "3.391",
        "epoch_osculation": "2457901.5",
        "eccentricity": ".5594423939812648",
        "semi_major_axis": "2.264390429610233",
        "inclination": "2.115801364831579",
        "ascending_node_longitude": "119.2515206234274",
        "orbital_period": "1244.587379791121",
        "perihelion_distance": ".9975944267608197",
        "perihelion_argument": "95.55168389046342",
        "aphelion_distance": "3.531186432459647",
        "perihelion_time": "2457875.944449536627",
        "mean_anomaly": "7.392006633040354",
        "mean_motion": ".2892524911030504",
        "equinox": "J2000",
        "orbit_class": {
            "orbit_class_type": "APO",
            "orbit_class_description": "Near-Earth asteroid orbits which cross the Earth’s orbit similar to that of 1862 Apollo",
            "orbit_class_range": "a (semi-major axis) > 1.0 AU; q (perihelion) < 1.017 AU"
        }
    },
    "is_sentry_object": false
}